NORAD_CAT_ID,OBJECT_NAME,OBJECT_TYPE,EPOCH,MEAN_MOTION,ECCENTRICITY,INCLINATION,RA_OF_ASC_NODE,ARG_OF_PERICENTER,MEAN_ANOMALY,BSTAR,MEAN_MOTION_DOT,MEAN_MOTION_DDOT,TLE_LINE0,TLE_LINE1,TLE_LINE2,SEMIMAJOR_AXIS,PERIOD,APOGEE,PERIGEE,DECAYED
53167.0,STARLINK-3683,PAYLOAD,2023-04-12 09:54:03,15.0883963,0.0001252,53.2218,237.8593,105.7921,254.321,-3.7294e-06,-3.47e-06,0.0,0 STARLINK-3683,1 53167U 22083AM  23102.41253871 -.00000347  00000-0 -37294-5 0  9992,2 53167  53.2218 237.8593 0001252 105.7921 254.3210 15.08839630 41192,6917.882,95.438,540.613,538.88,0.0
53167.0,STARLINK-3683,PAYLOAD,2023-04-13 01:47:54,15.08837452,0.0001303,53.2232,234.887,101.9108,258.203,8.7531e-05,1.105e-05,0.0,0 STARLINK-3683,1 53167U 22083AM  23103.07493700  .00001105  00000-0  87531-4 0  9991,2 53167  53.2232 234.8870 0001303 101.9108 258.2030 15.08837452 41299,6917.888,95.438,540.655,538.852,0.0
53167.0,STARLINK-3683,PAYLOAD,2023-04-13 17:41:45,15.08843234,0.0001232,53.2198,231.9123,97.0048,263.1084,0.00019734,2.854e-05,0.0,0 STARLINK-3683,1 53167U 22083AM  23103.73733090  .00002854  00000-0  19734-3 0  9994,2 53167  53.2198 231.9123 0001232  97.0048 263.1084 15.08843234 42030,6917.871,95.437,540.588,538.883,0.0
53167.0,STARLINK-3683,PAYLOAD,2023-04-14 08:00:14,15.08840581,0.0001817,53.2237,229.2385,102.1905,257.9291,0.00010056,1.313e-05,0.0,0 STARLINK-3683,1 53167U 22083AM  23104.33349634  .00001313  00000-0  10056-3 0  9995,2 53167  53.2237 229.2385 0001817 102.1905 257.9291 15.08840581 42126,6917.879,95.438,541.001,538.487,0.0
53167.0,STARLINK-3683,PAYLOAD,2023-04-15 01:29:28,15.08840009,4.98e-05,53.2188,225.9638,97.9055,262.1994,0.00010642,1.407e-05,0.0,0 STARLINK-3683,1 53167U 22083AM  23105.06213233  .00001407  00000-0  10642-3 0  9996,2 53167  53.2188 225.9638 0000498  97.9055 262.1994 15.08840009 42231,6917.88,95.438,540.09,539.401,0.0
53167.0,STARLINK-3683,PAYLOAD,2023-04-15 07:51:01,15.08841552,0.0001188,53.2157,224.7742,90.4057,269.7071,5.9875e-05,6.65e-06,0.0,0 STARLINK-3683,1 53167U 22083AM  23105.32709580  .00000665  00000-0  59875-4 0  9997,2 53167  53.2157 224.7742 0001188  90.4057 269.7071 15.08841552 41633,6917.876,95.437,540.562,538.919,0.0
53167.0,STARLINK-3683,PAYLOAD,2023-04-15 18:58:41,15.08866407,7.87e-05,53.2172,222.6933,77.6944,282.4137,0.0001565,2.206e-05,0.0,0 STARLINK-3683,1 53167U 22083AM  23105.79075372  .00002206  00000-0  15650-3 0  9998,2 53167  53.2172 222.6933 0000787  77.6944 282.4137 15.08866407 42345,6917.8,95.436,540.209,539.12,0.0
53167.0,STARLINK-3683,PAYLOAD,2023-04-16 01:20:16,15.08828375,0.0001884,53.2167,221.5072,54.2907,305.826,-3.6418e-05,-8.68e-06,0.0,0 STARLINK-3683,1 53167U 22083AM  23106.05574673 -.00000868  00000-0 -36418-4 0  9996,2 53167  53.2167 221.5072 0001884  54.2907 305.8260 15.08828375 42383,6917.916,95.438,541.084,538.478,0.0
53167.0,STARLINK-3683,PAYLOAD,2023-04-16 12:27:57,15.0883442,0.0001166,53.2181,219.4234,53.4454,306.6645,-0.00011112,-2.056e-05,0.0,0 STARLINK-3683,1 53167U 22083AM  23106.51941954 -.00002056  00000-0 -11112-3 0  9991,2 53167  53.2181 219.4234 0001166  53.4454 306.6645 15.08834420 42458,6917.897,95.438,540.569,538.956,0.0
53167.0,STARLINK-3683,PAYLOAD,2023-04-16 14:03:20,15.08837406,0.0001338,53.216,219.1241,72.7232,287.3906,-2.5914e-05,-7e-06,0.0,0 STARLINK-3683,1 53167U 22083AM  23106.58565852 -.00000700  00000-0 -25914-4 0  9997,2 53167  53.2160 219.1241 0001338  72.7232 287.3906 15.08837406 41821,6917.888,95.438,540.679,538.828,0.0
53167.0,STARLINK-3683,PAYLOAD,2023-04-16 17:14:06,15.08846515,0.0001208,53.214,218.5299,63.6205,296.4911,0.00017229,2.456e-05,0.0,0 STARLINK-3683,1 53167U 22083AM  23106.71813361  .00002456  00000-0  17229-3 0  9990,2 53167  53.2140 218.5299 0001208  63.6205 296.4911 15.08846515 42481,6917.86,95.437,540.561,538.89,0.0
53167.0,STARLINK-3683,PAYLOAD,2023-04-17 12:18:45,15.08836449,0.0001567,53.2177,214.9645,65.6829,294.4326,4.8652e-05,4.86e-06,0.0,0 STARLINK-3683,1 53167U 22083AM  23107.51302256  .00000486  00000-0  48652-4 0  9991,2 53167  53.2177 214.9645 0001567  65.6829 294.4326 15.08836449 42605,6917.891,95.438,540.84,538.672,0.0
53167.0,STARLINK-3683,PAYLOAD,2023-04-17 13:54:07,15.08846061,0.0001265,53.2182,214.6642,75.0052,285.108,1.125e-05,-1.09e-06,0.0,0 STARLINK-3683,1 53167U 22083AM  23107.57925623 -.00000109  00000-0  11250-4 0  9993,2 53167  53.2182 214.6642 0001265  75.0052 285.1080 15.08846061 41977,6917.862,95.437,540.602,538.852,0.0
53167.0,STARLINK-3683,PAYLOAD,2023-04-17 17:04:53,15.08850371,0.0001427,53.2185,214.0703,76.8628,283.2523,0.00017147,2.443e-05,0.0,0 STARLINK-3683,1 53167U 22083AM  23107.71173389  .00002443  00000-0  17147-3 0  9995,2 53167  53.2185 214.0703 0001427  76.8628 283.2523 15.08850371 42634,6917.849,95.437,540.701,538.727,0.0
53167.0,STARLINK-3683,PAYLOAD,2023-04-18 16:55:41,15.08850893,0.0001345,53.2172,209.61,68.9223,291.1913,0.00031467,4.725e-05,0.0,0 STARLINK-3683,1 53167U 22083AM  23108.70533596  .00004725  00000-0  31467-3 0  9991,2 53167  53.2172 209.6100 0001345  68.9223 291.1913 15.08850893 42149,6917.847,95.437,540.643,538.782,0.0
53167.0,STARLINK-3683,PAYLOAD,2023-04-19 07:14:09,15.0883756,0.0001271,53.2174,206.9331,77.3309,282.7825,-8.7239e-05,-1.676e-05,0.0,0 STARLINK-3683,1 53167U 22083AM  23109.30150215 -.00001676  00000-0 -87239-4 0  9994,2 53167  53.2174 206.9331 0001271  77.3309 282.7825 15.08837560 42238,6917.888,95.438,540.632,538.874,0.0
53167.0,STARLINK-3683,PAYLOAD,2023-04-19 12:00:18,15.08845008,0.0001527,53.2179,206.0401,87.9501,272.1666,3.6906e-05,2.99e-06,0.0,0 STARLINK-3683,1 53167U 22083AM  23109.50021825  .00000299  00000-0  36906-4 0  9993,2 53167  53.2179 206.0401 0001527  87.9501 272.1666 15.08845008 42903,6917.865,95.437,540.786,538.674,0.0
53167.0,STARLINK-3683,PAYLOAD,2023-04-20 08:40:20,15.08838281,0.0001452,53.2172,202.1746,89.8747,270.2411,-9.3373e-05,-1.774e-05,0.0,0 STARLINK-3683,1 53167U 22083AM  23110.36134444 -.00001774  00000-0 -93373-4 0  9993,2 53167  53.2172 202.1746 0001452  89.8747 270.2411 15.08838281 42390,6917.886,95.438,540.755,538.746,0.0
53167.0,STARLINK-3683,PAYLOAD,2023-04-20 15:01:52,15.0884358,0.0001673,53.2175,200.9869,93.0607,267.0576,-5.8781e-05,-1.224e-05,0.0,0 STARLINK-3683,1 53167U 22083AM  23110.62630234 -.00001224  00000-0 -58781-4 0  9994,2 53167  53.2175 200.9869 0001673  93.0607 267.0576 15.08843580 42431,6917.869,95.437,540.892,538.577,0.0
53167.0,STARLINK-3683,PAYLOAD,2023-04-20 22:58:48,15.08841384,0.0001449,53.2169,199.4986,78.5316,281.5838,-5.2301e-05,-1.12e-05,0.0,0 STARLINK-3683,1 53167U 22083AM  23110.95750792 -.00001120  00000-0 -52301-4 0  9999,2 53167  53.2169 199.4986 0001449  78.5316 281.5838 15.08841384 43121,6917.876,95.437,540.744,538.739,0.0
53167.0,STARLINK-3683,PAYLOAD,2023-04-21 08:31:07,15.08835512,0.000141,53.2167,197.7138,88.7882,271.3271,3.2216e-05,2.25e-06,0.0,0 STARLINK-3683,1 53167U 22083AM  23111.35495289  .00000225  00000-0  32216-4 0  9997,2 53167  53.2167 197.7138 0001410  88.7882 271.3271 15.08835512 42547,6917.894,95.438,540.735,538.784,0.0
53167.0,STARLINK-3683,PAYLOAD,2023-04-21 14:52:40,15.08837424,0.0001386,53.2168,196.5257,81.0289,279.086,0.00012031,1.627e-05,0.0,0 STARLINK-3683,1 53167U 22083AM  23111.61991044  .00001627  00000-0  12031-3 0  9995,2 53167  53.2168 196.5257 0001386  81.0289 279.0860 15.08837424 42583,6917.888,95.438,540.712,538.794,0.0
53167.0,STARLINK-3683,PAYLOAD,2023-04-21 22:49:36,15.08835934,0.000132,53.2159,195.0376,79.6135,280.5006,0.00010087,1.318e-05,0.0,0 STARLINK-3683,1 53167U 22083AM  23111.95111182  .00001318  00000-0  10087-3 0  9995,2 53167  53.2159 195.0376 0001320  79.6135 280.5006 15.08835934 42639,6917.893,95.438,540.671,538.845,0.0
53167.0,STARLINK-3683,PAYLOAD,2023-04-22 14:43:26,15.08850028,0.000147,53.2166,192.0646,84.3123,275.8036,0.00015974,2.256e-05,0.0,0 STARLINK-3683,1 53167U 22083AM  23112.61350140  .00002256  00000-0  15974-3 0  9990,2 53167  53.2166 192.0646 0001470  84.3123 275.8036 15.08850028 43373,6917.85,95.437,540.732,538.698,0.0
53167.0,STARLINK-3683,PAYLOAD,2023-04-23 05:01:56,15.08833507,0.0001484,53.2165,189.389,91.6643,268.452,7.4939e-05,9.05e-06,0.0,0 STARLINK-3683,1 53167U 22083AM  23113.20967614  .00000905  00000-0  74939-4 0  9992,2 53167  53.2165 189.3890 0001484  91.6643 268.4520 15.08833507 42823,6917.9,95.438,540.792,538.739,0.0
53167.0,STARLINK-3683,PAYLOAD,2023-04-23 16:09:37,15.08840551,0.0001343,53.2165,187.3065,92.1188,267.9958,2.2576e-05,7.1e-07,0.0,0 STARLINK-3683,1 53167U 22083AM  23113.67335298  .00000071  00000-0  22576-4 0  9994,2 53167  53.2165 187.3065 0001343  92.1188 267.9958 15.08840551 42892,6917.879,95.438,540.673,538.815,0.0
53167.0,STARLINK-3683,PAYLOAD,2023-04-23 22:31:10,15.08841796,0.0001378,53.2173,186.1158,89.52,270.595,7.3801e-05,8.87e-06,0.0,0 STARLINK-3683,1 53167U 22083AM  23113.93831157  .00000887  00000-0  73801-4 0  9990,2 53167  53.2173 186.1158 0001378  89.5200 270.5950 15.08841796 43574,6917.875,95.437,540.693,538.787,0.0
53167.0,STARLINK-3683,PAYLOAD,2023-04-24 16:00:21,15.08879923,0.0001358,53.2172,182.8456,87.2807,272.834,0.00025246,3.737e-05,0.0,0 STARLINK-3683,1 53167U 22083AM  23114.66691348  .00003737  00000-0  25246-3 0  9993,2 53167  53.2172 182.8456 0001358  87.2807 272.8340 15.08879923 43686,6917.758,95.435,540.563,538.684,0.0
53167.0,STARLINK-3683,PAYLOAD,2023-04-25 11:05:02,15.08811109,0.0001347,53.2163,179.2751,117.073,243.04,-0.00040237,-6.681e-05,0.0,0 STARLINK-3683,1 53167U 22083AM  23115.46183862 -.00006681  00000-0 -40237-3 0  9999,2 53167  53.2163 179.2751 0001347 117.0730 243.0400 15.08811109 43161,6917.969,95.439,540.766,538.902,0.0
53167.0,STARLINK-3683,PAYLOAD,2023-04-26 12:31:14,15.08802736,0.0001092,53.2161,174.5202,108.4788,251.6323,0.00021774,3.176e-05,0.0,0 STARLINK-3683,1 53167U 22083AM  23116.52169289  .00003176  00000-0  21774-3 0  9993,2 53167  53.2161 174.5202 0001092 108.4788 251.6323 15.08802736 43325,6917.994,95.44,540.615,539.104,0.0
